$$SOE
2461302.500000000, A.D. 2026-Sep-19 00:00:00.0000, 2.477836517518339E+08, 1.708159131705987E+08, -7.934814948751758E+07,
2461309.500000000, A.D. 2026-Sep-26 00:00:00.0000, 2.405976180392801E+08, 1.824991596733088E+08, -7.800806231704386E+07,
2461316.500000000, A.D. 2026-Oct-03 00:00:00.0000, 2.330266856565076E+08, 1.938904698975890E+08, -7.654318094595507E+07,
2461323.500000000, A.D. 2026-Oct-10 00:00:00.0000, 2.250856746646831E+08, 2.049738798942230E+08, -7.495673925929594E+07,
2461330.500000000, A.D. 2026-Oct-17 00:00:00.0000, 2.167901441121690E+08, 2.157344780757989E+08, -7.325223910594717E+07,
2461337.500000000, A.D. 2026-Oct-24 00:00:00.0000, 2.081562998134887E+08, 2.261584472133248E+08, -7.143342690055510E+07,
2461344.500000000, A.D. 2026-Oct-31 00:00:00.0000, 1.992009005431512E+08, 2.362330959736770E+08, -6.950426918696174E+07,
2461351.500000000, A.D. 2026-Nov-07 00:00:00.0000, 1.899411642250681E+08, 2.459468801711487E+08, -6.746892753835845E+07,
2461358.500000000, A.D. 2026-Nov-14 00:00:00.0000, 1.803946754910767E+08, 2.552894148868512E+08, -6.533173307823362E+07,
2461365.500000000, A.D. 2026-Nov-21 00:00:00.0000, 1.705792938677458E+08, 2.642514785523337E+08, -6.309716071731160E+07,
2461372.500000000, A.D. 2026-Nov-28 00:00:00.0000, 1.605130625463285E+08, 2.728250065539141E+08, -6.076980355947183E+07,
2461379.500000000, A.D. 2026-Dec-05 00:00:00.0000, 1.502141222084239E+08, 2.810030743941982E+08, -5.835434814888994E+07,
2461386.500000000, A.D. 2026-Dec-12 00:00:00.0000, 1.397006308070639E+08, 2.887798742852753E+08, -5.585555057551291E+07,
2461393.500000000, A.D. 2026-Dec-19 00:00:00.0000, 1.289906880135736E+08, 2.961506859959579E+08, -5.327821348342869E+07,
2461400.500000000, A.D. 2026-Dec-26 00:00:00.0000, 1.181022646538048E+08, 3.031118419361930E+08, -5.062716422172889E+07,
2461407.500000000, A.D. 2027-Jan-02 00:00:00.0000, 1.070531377466381E+08, 3.096606871498577E+08, -4.790723432306013E+07,
2461414.500000000, A.D. 2027-Jan-09 00:00:00.0000, 9.586083147491789E+07, 3.157955350899255E+08, -4.512324042678061E+07,
2461421.500000000, A.D. 2027-Jan-16 00:00:00.0000, 8.454256422284558E+07, 3.215156200143558E+08, -4.227996672324300E+07,
2461428.500000000, A.D. 2027-Jan-23 00:00:00.0000, 7.311520172167762E+07, 3.268210467548132E+08, -3.938214896994586E+07,
2461435.500000000, A.D. 2027-Jan-30 00:00:00.0000, 6.159521639733077E+07, 3.317127385536784E+08, -3.643446011658005E+07,
2461442.500000000, A.D. 2027-Feb-06 00:00:00.0000, 4.999865317411478E+07, 3.361923839970552E+08, -3.344149754225382E+07,
2461449.500000000, A.D. 2027-Feb-13 00:00:00.0000, 3.834110104336263E+07, 3.402623848902100E+08, -3.040777173502782E+07,
2461456.500000000, A.D. 2027-Feb-20 00:00:00.0000, 2.663766775509550E+07, 3.439258048374636E+08, -2.733769621470083E+07,
2461463.500000000, A.D. 2027-Feb-27 00:00:00.0000, 1.490295870377633E+07, 3.471863157933787E+08, -2.423557902608947E+07,
2461470.500000000, A.D. 2027-Mar-06 00:00:00.0000, 3.151062674609066E+06, 3.500481449371832E+08, -2.110561585129915E+07,
2461477.500000000, A.D. 2027-Mar-13 00:00:00.0000, -8.604457508686267E+06, 3.525160242810867E+08, -1.795188434729113E+07,
2461484.500000000, A.D. 2027-Mar-20 00:00:00.0000, -2.035057093440048E+07, 3.545951424681634E+08, -1.477833958571742E+07,
2461491.500000000, A.D. 2027-Mar-27 00:00:00.0000, -3.207478132354819E+07, 3.562910984446945E+08, -1.158881056726626E+07,
2461498.500000000, A.D. 2027-Apr-03 00:00:00.0000, -4.376512668593108E+07, 3.576098571410792E+08, -8.386997740644589E+06,
2461505.500000000, A.D. 2027-Apr-10 00:00:00.0000, -5.541017620744810E+07, 3.585577073177145E+08, -5.176471437693298E+06,
2461512.500000000, A.D. 2027-Apr-17 00:00:00.0000, -6.699902468902198E+07, 3.591412216511851E+08, -1.960671137097538E+06,
2461519.500000000, A.D. 2027-Apr-24 00:00:00.0000, -7.852128478272058E+07, 3.593672190497035E+08, 1.257094519013554E+06,
2461526.500000000, A.D. 2027-May-01 00:00:00.0000, -8.996707703061335E+07, 3.592427292432905E+08, 4.473647014818430E+06,
2461533.500000000, A.D. 2027-May-08 00:00:00.0000, -1.013270176836191E+08, 3.587749603871732E+08, 7.685936669976175E+06,
2461540.500000000, A.D. 2027-May-15 00:00:00.0000, -1.125922060593039E+08, 3.579712706007448E+08, 1.089104105856493E+07,
2461547.500000000, A.D. 2027-May-22 00:00:00.0000, -1.237542132376960E+08, 3.568391407967197E+08, 1.408616313952382E+07,
2461554.500000000, A.D. 2027-May-29 00:00:00.0000, -1.348050689551097E+08, 3.553861472548339E+08, 1.726862873611350E+07,
2461561.500000000, A.D. 2027-Jun-05 00:00:00.0000, -1.457372460118276E+08, 3.536199369908164E+08, 2.043588359880194E+07,
2461568.500000000, A.D. 2027-Jun-12 00:00:00.0000, -1.565436443754961E+08, 3.515482062660888E+08, 2.358549032506217E+07,
2461575.500000000, A.D. 2027-Jun-19 00:00:00.0000, -1.672175754639123E+08, 3.491786812043076E+08, 2.671512513926487E+07,
2461582.500000000, A.D. 2027-Jun-26 00:00:00.0000, -1.777527464638478E+08, 3.465191001493340E+08, 2.982257453007956E+07,
2461589.500000000, A.D. 2027-Jul-03 00:00:00.0000, -1.881432446731384E+08, 3.435771976676382E+08, 3.290573177366321E+07,
2461596.500000000, A.D. 2027-Jul-10 00:00:00.0000, -1.983835219323648E+08, 3.403606900985118E+08, 3.596259337532522E+07,
2461603.500000000, A.D. 2027-Jul-17 00:00:00.0000, -2.084683791976885E+08, 3.368772625087761E+08, 3.899125545442790E+07,
2461610.500000000, A.D. 2027-Jul-24 00:00:00.0000, -2.183929511718887E+08, 3.331345568862414E+08, 4.198991008038425E+07,
2461617.500000000, A.D. 2027-Jul-31 00:00:00.0000, -2.281526906423417E+08, 3.291401617059416E+08, 4.495684156475963E+07,
2461624.500000000, A.D. 2027-Aug-07 00:00:00.0000, -2.377433527761036E+08, 3.249016039211605E+08, 4.789042284182341E+07,
2461631.500000000, A.D. 2027-Aug-14 00:00:00.0000, -2.471609817144495E+08, 3.204263430304071E+08, 5.078911214456955E+07,
2461638.500000000, A.D. 2027-Aug-21 00:00:00.0000, -2.564018988801306E+08, 3.157217637639632E+08, 5.365144965833071E+07,
2461645.500000000, A.D. 2027-Aug-28 00:00:00.0000, -2.654626895924376E+08, 3.107951685021150E+08, 5.647605394702095E+07,
2461652.500000000, A.D. 2027-Sep-04 00:00:00.0000, -2.743401891970527E+08, 3.056537718474682E+08, 5.926161847540492E+07,
2461659.500000000, A.D. 2027-Sep-11 00:00:00.0000, -2.830314701225471E+08, 3.003046966206584E+08, 6.200690831048381E+07,
2461666.500000000, A.D. 2027-Sep-18 00:00:00.0000, -2.915338297369294E+08, 2.947549705616325E+08, 6.471075694338901E+07,
2461673.500000000, A.D. 2027-Sep-25 00:00:00.0000, -2.998447787770384E+08, 2.890115235929832E+08, 6.737206320914239E+07,
2461680.500000000, A.D. 2027-Oct-02 00:00:00.0000, -3.079620302742780E+08, 2.830811856105843E+08, 6.998978830282229E+07,
2461687.500000000, A.D. 2027-Oct-09 00:00:00.0000, -3.158834889501826E+08, 2.769706847388973E+08, 7.256295289169995E+07,
2461694.500000000, A.D. 2027-Oct-16 00:00:00.0000, -3.236072410123079E+08, 2.706866459422431E+08, 7.509063431412376E+07,
2461701.500000000, A.D. 2027-Oct-23 00:00:00.0000, -3.311315440821967E+08, 2.642355899366331E+08, 7.757196384111711E+07,
2461708.500000000, A.D. 2027-Oct-30 00:00:00.0000, -3.384548168707423E+08, 2.576239329665145E+08, 8.000612401579496E+07,
2461715.500000000, A.D. 2027-Nov-06 00:00:00.0000, -3.455756297540247E+08, 2.508579885324491E+08, 8.239234626872997E+07,
2461722.500000000, A.D. 2027-Nov-13 00:00:00.0000, -3.524926982244675E+08, 2.439439689565881E+08, 8.472990882091707E+07,
2461729.500000000, A.D. 2027-Nov-20 00:00:00.0000, -3.592048763008265E+08, 2.368879845664150E+08, 8.701813442790510E+07,
2461736.500000000, A.D. 2027-Nov-27 00:00:00.0000, -3.657111482630653E+08, 2.296960434267760E+08, 8.925638805614693E+07,
2461743.500000000, A.D. 2027-Dec-04 00:00:00.0000, -3.720106207232751E+08, 2.223740525032906E+08, 9.144407474961059E+07,
2461750.500000000, A.D. 2027-Dec-11 00:00:00.0000, -3.781025155706722E+08, 2.149278192678466E+08, 9.358063765649216E+07,
2461757.500000000, A.D. 2027-Dec-18 00:00:00.0000, -3.839861635010209E+08, 2.073630533837073E+08, 9.566555616062978E+07,
2461764.500000000, A.D. 2027-Dec-25 00:00:00.0000, -3.896609979636009E+08, 1.996853684460111E+08, 9.769834410069939E+07,
2461771.500000000, A.D. 2028-Jan-01 00:00:00.0000, -3.951265494698869E+08, 1.919002837721367E+08, 9.967854807175505E+07,
$$EOE